{
    "links": {
        "self": "http://www.neowsapp.com/rest/v1/neo/3183850?api_key=iIulBulltgU6a56xZRHN4H3l9WmuAYTsLGpBGhQ2"
    },
    "id": "3183850",
    "neo_reference_id": "3183850",
    "name": "(2004 LX5)",
    "designation": "2004 LX5",
    "nasa_jpl_url": "http://ssd.jpl.nasa.gov/sbdb.cgi?sstr=3183850",
    "absolute_magnitude_h": 25.6,
    "estimated_diameter": {
        "kilometers": {
            "estimated_diameter_min": 0.0201629919,
            "estimated_diameter_max": 0.0450858206
        },
        "meters": {
            "estimated_diameter_min": 20.1629919443,
            "estimated_diameter_max": 45.0858206172
        },
        "miles": {
            "estimated_diameter_min": 0.0125286985,
            "estimated_diameter_max": 0.0280150214
        },
        "feet": {
            "estimated_diameter_min": 66.1515504905,
            "estimated_diameter_max": 147.9193637137
        }
    },
    "is_potentially_hazardous_asteroid": false,
    "close_approach_data": [
        {
            "close_approach_date": "1934-05-07",
            "close_approach_date_full": "1934-May-07 07:03",
            "epoch_date_close_approach": -1125161820000,
            "relative_velocity": {
                "kilometers_per_second": "13.9345182493",
                "kilometers_per_hour": "50164.265697395",
                "miles_per_hour": "31170.1238718064"
            },
            "miss_distance": {
                "astronomical": "0.3726710685",
                "lunar": "144.9690456465",
                "kilometers": "55750798.058224095",
                "miles": "34641939.545298711"
            },
            "orbiting_body": "Earth"
        },
        {
            "close_approach_date": "1937-04-28",
            "close_approach_date_full": "1937-Apr-28 01:44",
            "epoch_date_close_approach": -1031264160000,
            "relative_velocity": {
                "kilometers_per_second": "16.9916917648",
                "kilometers_per_hour": "61170.0903533336",
                "miles_per_hour": "38008.7153087144"
            },
            "miss_distance": {
                "astronomical": "0.4847304119",
                "lunar": "188.5601302291",
                "kilometers": "72514637.144462653",
                "miles": "45058506.1308764914"
            },
            "orbiting_body": "Earth"
        },
        {
            "close_approach_date": "1959-01-25",
            "close_approach_date_full": "1959-Jan-25 07:36",
            "epoch_date_close_approach": -345054240000,
            "relative_velocity": {
                "kilometers_per_second": "6.9356831118",
                "kilometers_per_hour": "24968.4592026266",
                "miles_per_hour": "15514.4295528765"
            },
            "miss_distance": {
                "astronomical": "0.0701534248",
                "lunar": "27.2896822472",
                "kilometers": "10494802.923285176",
                "miles": "6521168.1459443888"
            },
            "orbiting_body": "Mars"
        },
        {
            "close_approach_date": "2004-06-12",
            "close_approach_date_full": "2004-Jun-12 16:39",
            "epoch_date_close_approach": 1087058340000,
            "relative_velocity": {
                "kilometers_per_second": "7.8828510248",
                "kilometers_per_hour": "28378.2636892592",
                "miles_per_hour": "17633.1494573622"
            },
            "miss_distance": {
                "astronomical": "0.0176354704",
                "lunar": "6.8601979856",
                "kilometers": "2638228.808288048",
                "miles": "1639319.3652211424"
            },
            "orbiting_body": "Earth"
        }
    ],
    "orbital_data": {
        "orbit_id": "6",
        "orbit_determination_date": "2017-04-06 09:12:39",
        "first_observation_date": "2004-06-12",
        "last_observation_date": "2004-06-13",
        "data_arc_in_days": 1,
        "observations_used": 18,
        "orbit_uncertainty": "9",
        "minimum_orbit_intersection": ".0135254",
        "jupiter_tisserand_invariant": "4.931",
        "epoch_osculation": "2453169.5",
        "eccentricity": ".2139721115214214",
        "semi_major_axis": "1.307608279344671",
        "inclination": "13.59419444138047",
        "ascending_node_longitude": "83.35860494841991",
        "orbital_period": "546.1537493810408",
        "perihelion_distance": "1.027816574770399",
        "perihelion_argument": "172.6342663850316",
        "aphelion_distance": "1.587399983918943",
        "perihelion_time": "2453162.880430038237",
        "mean_anomaly": "4.363322945114628",
        "mean_motion": ".6591550463729124",
        "equinox": "J2000",
        "orbit_class": {
            "orbit_class_type": "AMO",
            "orbit_class_description": "Near-Earth asteroid orbits similar to that of 1221 Amor",
            "orbit_class_range": "1.017 AU < q (perihelion) < 1.3 AU"
        }
    },
    "is_sentry_object": false
}